{
  "norad_id": 59317,
  "name": "STARLINK-31349",
  "history": [
    {
      "epoch": "2026-03-28T10:41:26.149920Z",
      "apogee_km": 483.72629641523326,
      "perigee_km": 482.3307353493019,
      "latitude_deg": -1.1484455226487998e-05,
      "longitude_deg": 138.48074677793446,
      "height_km": 482.8992188210305,
      "semi_major_axis_km": 6861.165515882267,
      "eccentricity": 0.0001017,
      "inclination_deg": 43.0015,
      "raan_deg": 124.7055,
      "arg_perigee_deg": 262.2429,
      "mean_anomaly_deg": 97.8307,
      "mean_motion_rev_day": 15.27586873
    },
    {
      "epoch": "2026-03-29T02:23:00.302784Z",
      "apogee_km": 483.6927127266008,
      "perigee_km": 482.4233916419453,
      "latitude_deg": -1.5199172841920402e-05,
      "longitude_deg": -101.2492421756301,
      "height_km": 483.0372716497708,
      "semi_major_axis_km": 6861.195052184273,
      "eccentricity": 9.25e-05,
      "inclination_deg": 43.0016,
      "raan_deg": 121.0123,
      "arg_perigee_deg": 251.3631,
      "mean_anomaly_deg": 108.712,
      "mean_motion_rev_day": 15.27577009
    },
    {
      "epoch": "2026-03-30T03:29:30.679872Z",
      "apogee_km": 483.6589406017001,
      "perigee_km": 482.4633082165392,
      "latitude_deg": -1.5629860991796175e-05,
      "longitude_deg": -124.81538012006536,
      "height_km": 482.9383588079206,
      "semi_major_axis_km": 6861.198124409119,
      "eccentricity": 8.713e-05,
      "inclination_deg": 43.0017,
      "raan_deg": 115.1039,
      "arg_perigee_deg": 260.2905,
      "mean_anomaly_deg": 99.7848,
      "mean_motion_rev_day": 15.27575983
    },
    {
      "epoch": "2026-03-30T12:54:26.682048Z",
      "apogee_km": 483.65465489687904,
      "perigee_km": 482.44173457815305,
      "latitude_deg": 1.9104331563025837e-05,
      "longitude_deg": 91.34853182194503,
      "height_km": 483.0512302917205,
      "semi_major_axis_km": 6861.185194737516,
      "eccentricity": 8.839e-05,
      "inclination_deg": 43.0016,
      "raan_deg": 112.8878,
      "arg_perigee_deg": 248.05,
      "mean_anomaly_deg": 112.0258,
      "mean_motion_rev_day": 15.27580301
    },
    {
      "epoch": "2026-03-31T10:52:38.707392Z",
      "apogee_km": 483.7970425927124,
      "perigee_km": 482.33807605521724,
      "latitude_deg": -5.2484074390655764e-06,
      "longitude_deg": 115.72662529491934,
      "height_km": 483.16252221109835,
      "semi_major_axis_km": 6861.2045593239645,
      "eccentricity": 0.00010632,
      "inclination_deg": 43.0018,
      "raan_deg": 107.7183,
      "arg_perigee_deg": 244.1135,
      "mean_anomaly_deg": 115.9607,
      "mean_motion_rev_day": 15.27573834
    },
    {
      "epoch": "2026-04-01T10:24:59.709888Z",
      "apogee_km": 483.88409962996957,
      "perigee_km": 482.2634816412219,
      "latitude_deg": -2.1983524877656237e-05,
      "longitude_deg": 116.1338790997226,
      "height_km": 483.3353588813297,
      "semi_major_axis_km": 6861.210790635596,
      "eccentricity": 0.0001181,
      "inclination_deg": 43.0025,
      "raan_deg": 102.1798,
      "arg_perigee_deg": 233.231,
      "mean_anomaly_deg": 126.8433,
      "mean_motion_rev_day": 15.27571753
    },
    {
      "epoch": "2026-04-02T08:23:10.406400Z",
      "apogee_km": 483.90148507176764,
      "perigee_km": 482.1705483431124,
      "latitude_deg": 5.5370880931825676e-05,
      "longitude_deg": 140.51803275805236,
      "height_km": 483.03956494110685,
      "semi_major_axis_km": 6861.173016707439,
      "eccentricity": 0.00012614,
      "inclination_deg": 43.0032,
      "raan_deg": 97.0107,
      "arg_perigee_deg": 254.8161,
      "mean_anomaly_deg": 105.2552,
      "mean_motion_rev_day": 15.27584368
    },
    {
      "epoch": "2026-04-03T00:04:44.253408Z",
      "apogee_km": 483.89888461609735,
      "perigee_km": 482.1735739958558,
      "latitude_deg": 2.745686683413034e-05,
      "longitude_deg": -99.20940349179476,
      "height_km": 482.80112645251677,
      "semi_major_axis_km": 6861.173229305977,
      "eccentricity": 0.00012573,
      "inclination_deg": 43.0042,
      "raan_deg": 93.3188,
      "arg_perigee_deg": 270.8071,
      "mean_anomaly_deg": 89.2637,
      "mean_motion_rev_day": 15.27584297
    },
    {
      "epoch": "2026-04-04T01:11:15.060768Z",
      "apogee_km": 483.8936003343324,
      "perigee_km": 482.22289929100407,
      "latitude_deg": 4.117758571782446e-06,
      "longitude_deg": -122.77646431940069,
      "height_km": 482.70062037944166,
      "semi_major_axis_km": 6861.195249812668,
      "eccentricity": 0.00012175,
      "inclination_deg": 43.004,
      "raan_deg": 87.4113,
      "arg_perigee_deg": 279.2745,
      "mean_anomaly_deg": 80.7969,
      "mean_motion_rev_day": 15.27576943
    },
    {
      "epoch": "2026-04-05T05:26:04.384032Z",
      "apogee_km": 483.638006417681,
      "perigee_km": 482.51606069891386,
      "latitude_deg": -3.7258105267930374e-05,
      "longitude_deg": 165.70721217400492,
      "height_km": 483.2037404508052,
      "semi_major_axis_km": 6861.214033558297,
      "eccentricity": 8.176e-05,
      "inclination_deg": 43.0014,
      "raan_deg": 80.7606,
      "arg_perigee_deg": 231.3236,
      "mean_anomaly_deg": 128.7542,
      "mean_motion_rev_day": 15.2757067
    },
    {
      "epoch": "2026-04-06T00:15:56.791872Z",
      "apogee_km": 483.7017095060519,
      "perigee_km": 482.42662388123426,
      "latitude_deg": -1.0733129088166712e-05,
      "longitude_deg": -121.96409785791289,
      "height_km": 483.03295470793387,
      "semi_major_axis_km": 6861.201166693643,
      "eccentricity": 9.292e-05,
      "inclination_deg": 43.003,
      "raan_deg": 76.331,
      "arg_perigee_deg": 252.4521,
      "mean_anomaly_deg": 107.6229,
      "mean_motion_rev_day": 15.27574967
    },
    {
      "epoch": "2026-04-07T06:04:55.058592Z",
      "apogee_km": 483.9005348903702,
      "perigee_km": 482.184553886319,
      "latitude_deg": -1.4132354725117238e-05,
      "longitude_deg": 142.5534101054372,
      "height_km": 482.7248584585378,
      "semi_major_axis_km": 6861.179544388344,
      "eccentricity": 0.00012505,
      "inclination_deg": 43.0032,
      "raan_deg": 69.3158,
      "arg_perigee_deg": 276.332,
      "mean_anomaly_deg": 83.7389,
      "mean_motion_rev_day": 15.27582188
    },
    {
      "epoch": "2026-04-08T05:37:15.839904Z",
      "apogee_km": 483.8930878905685,
      "perigee_km": 482.1482954895728,
      "latitude_deg": -8.805273487204118e-07,
      "longitude_deg": 142.9636157945312,
      "height_km": 482.8193221271955,
      "semi_major_axis_km": 6861.15769169007,
      "eccentricity": 0.00012715,
      "inclination_deg": 43.0043,
      "raan_deg": 63.7793,
      "arg_perigee_deg": 268.5838,
      "mean_anomaly_deg": 91.4868,
      "mean_motion_rev_day": 15.27589486
    },
    {
      "epoch": "2026-04-09T14:34:33.025152Z",
      "apogee_km": 483.89998194168857,
      "perigee_km": 482.1984077653642,
      "latitude_deg": 3.2105362927696043e-06,
      "longitude_deg": -0.46569363851529705,
      "height_km": 482.7642500147253,
      "semi_major_axis_km": 6861.186194853526,
      "eccentricity": 0.000124,
      "inclination_deg": 43.0053,
      "raan_deg": 56.025,
      "arg_perigee_deg": 274.1864,
      "mean_anomaly_deg": 85.8846,
      "mean_motion_rev_day": 15.27579967
    },
    {
      "epoch": "2026-04-10T06:16:06.822048Z",
      "apogee_km": 483.8993325948313,
      "perigee_km": 482.2057165725828,
      "latitude_deg": 5.0197829687584025e-05,
      "longitude_deg": 119.8063571302601,
      "height_km": 482.8158598523409,
      "semi_major_axis_km": 6861.189524583707,
      "eccentricity": 0.00012342,
      "inclination_deg": 43.0054,
      "raan_deg": 52.3323,
      "arg_perigee_deg": 270.9355,
      "mean_anomaly_deg": 89.1356,
      "mean_motion_rev_day": 15.27578855
    },
    {
      "epoch": "2026-04-11T13:39:14.757984Z",
      "apogee_km": 484.04335923876897,
      "perigee_km": 482.08380035317805,
      "latitude_deg": -5.588898833724094e-06,
      "longitude_deg": 0.3482703657326013,
      "height_km": 482.9492309726503,
      "semi_major_axis_km": 6861.200579795973,
      "eccentricity": 0.0001428,
      "inclination_deg": 43.0064,
      "raan_deg": 44.9463,
      "arg_perigee_deg": 263.6577,
      "mean_anomaly_deg": 96.4112,
      "mean_motion_rev_day": 15.27575163
    },
    {
      "epoch": "2026-04-13T03:19:00.364224Z",
      "apogee_km": 484.15124302290315,
      "perigee_km": 482.01191506995747,
      "latitude_deg": 2.6194161380841863e-06,
      "longitude_deg": 144.99790118802548,
      "height_km": 483.1912475014511,
      "semi_major_axis_km": 6861.21857904643,
      "eccentricity": 0.0001559,
      "inclination_deg": 43.0081,
      "raan_deg": 36.0827,
      "arg_perigee_deg": 251.9156,
      "mean_anomaly_deg": 108.1526,
      "mean_motion_rev_day": 15.27569152
    },
    {
      "epoch": "2026-04-14T12:16:17.190912Z",
      "apogee_km": 483.68939173226045,
      "perigee_km": 482.43406681275246,
      "latitude_deg": 2.7393616698955168e-05,
      "longitude_deg": 1.5722173079719313,
      "height_km": 482.7245595720657,
      "semi_major_axis_km": 6861.198729272506,
      "eccentricity": 9.148e-05,
      "inclination_deg": 43.0068,
      "raan_deg": 28.3305,
      "arg_perigee_deg": 280.4841,
      "mean_anomaly_deg": 79.5908,
      "mean_motion_rev_day": 15.27575781
    },
    {
      "epoch": "2026-04-15T19:39:24.825312Z",
      "apogee_km": 483.8166335830274,
      "perigee_km": 482.21386841719413,
      "latitude_deg": -9.348654102496445e-06,
      "longitude_deg": -117.88668428409484,
      "height_km": 483.03399466923355,
      "semi_major_axis_km": 6861.1522510001105,
      "eccentricity": 0.0001168,
      "inclination_deg": 43.0066,
      "raan_deg": 20.9424,
      "arg_perigee_deg": 252.4548,
      "mean_anomaly_deg": 107.6176,
      "mean_motion_rev_day": 15.27591303
    }
  ]
}